STARLINK-36612          
1 67580U 26016V   26051.13575919  .00083853  00000+0  43353-3 0  9992
2 67580  97.2829 110.8096 0001622  91.3110 268.8344 15.80855073  4041
STARLINK-36632          
1 67581U 26016W   26051.15707429  .00153474  00000+0  10119-2 0  9998
2 67581  97.2842 110.7816 0002988  10.6996 349.4332 15.75175844  4046
STARLINK-36609          
1 67582U 26016X   26051.10942543  .00333660  00000+0  21402-2 0  9996
2 67582  97.2835 110.6922 0001734 130.0573 230.0844 15.75313490  4035
STARLINK-36577          
1 67583U 26016Y   26051.13427874  .00033679  00000+0  17566-3 0  9999
2 67583  97.2824 110.8112 0002060 106.7869 253.3625 15.80842802  4044
STARLINK-36419          
1 67584U 26016Z   26051.25002315 -.00061147  00000+0 -41176-3 0  9999
2 67584  97.2846 110.9185 0001082  61.3570 195.4791 15.75205393  5243
STARLINK-36560          
1 67585U 26016AA  26051.12856248  .00172997  00000+0  88379-3 0  9998
2 67585  97.2829 110.8212 0002108 132.4876 227.6571 15.80872522  4045
NAVSTAR 85 (USA 581)    
1 67588U 26017A   26048.53936881  .00000028  00000+0  00000+0 0  9991
2 67588  55.0081  93.5564 0000946  45.2724 314.8210  2.00561228429213
STARLINK-36641          
1 67589U 26018A   26051.72222054  .00217542  00000+0  14224-2 0  9995
2 67589  97.2839 116.6441 0002122  71.4151 288.7345 15.75190778  4634
STARLINK-36376          
1 67590U 26018B   26051.75002314 -.00149025  00000+0 -10121-2 0  9999
2 67590  97.2842 116.7172 0001497  96.6931 162.9827 15.75273555  4678
STARLINK-36391          
1 67591U 26018C   26051.69293248  .00363872  00000+0  18104-2 0  9996
2 67591  97.2824 116.6847 0001680  47.0211 313.1197 15.80959488  4630
STARLINK-36603          
1 67592U 26018D   26051.75002314 -.00132480  00000+0 -89812-3 0  9992
2 67592  97.2842 116.7278 0001399 104.4936 179.1761 15.75267434  4633
STARLINK-36634          
1 67593U 26018E   26051.75002314 -.01304097  00000+0 -93502-2 0  9999
2 67593  97.2836 116.7462 0001496  80.9987 246.1626 15.76158418  4620
