CCSDS_OMM_VERS = 2.0
CREATION_DATE  = 
ORIGINATOR     = 

OBJECT_NAME    = STARLINK-36612
OBJECT_ID      = 2026-016V
CENTER_NAME    = EARTH
REF_FRAME      = TEME
TIME_SYSTEM    = UTC
MEAN_ELEMENT_THEORY = SGP/SGP4

EPOCH          = 2026-02-20T03:15:29.594016
MEAN_MOTION    = 15.80855073
ECCENTRICITY   = .00016227
INCLINATION    = 97.2829
RA_OF_ASC_NODE = 110.8096
ARG_OF_PERICENTER = 91.3110
MEAN_ANOMALY   = 268.8344

EPHEMERIS_TYPE = 0
CLASSIFICATION_TYPE = U
NORAD_CAT_ID   = 67580
ELEMENT_SET_NO = 999
REV_AT_EPOCH   = 404
BSTAR          = .43353183E-3
MEAN_MOTION_DOT = .83853E-3
MEAN_MOTION_DDOT = 0

CCSDS_OMM_VERS = 2.0
CREATION_DATE  = 
ORIGINATOR     = 

OBJECT_NAME    = STARLINK-36632
OBJECT_ID      = 2026-016W
CENTER_NAME    = EARTH
REF_FRAME      = TEME
TIME_SYSTEM    = UTC
MEAN_ELEMENT_THEORY = SGP/SGP4

EPOCH          = 2026-02-20T03:46:11.218656
MEAN_MOTION    = 15.75175844
ECCENTRICITY   = .0002988
INCLINATION    = 97.2842
RA_OF_ASC_NODE = 110.7816
ARG_OF_PERICENTER = 10.6996
MEAN_ANOMALY   = 349.4332

EPHEMERIS_TYPE = 0
CLASSIFICATION_TYPE = U
NORAD_CAT_ID   = 67581
ELEMENT_SET_NO = 999
REV_AT_EPOCH   = 404
BSTAR          = .10119238E-2
MEAN_MOTION_DOT = .153474E-2
MEAN_MOTION_DDOT = 0

CCSDS_OMM_VERS = 2.0
CREATION_DATE  = 
ORIGINATOR     = 

OBJECT_NAME    = STARLINK-36609
OBJECT_ID      = 2026-016X
CENTER_NAME    = EARTH
REF_FRAME      = TEME
TIME_SYSTEM    = UTC
MEAN_ELEMENT_THEORY = SGP/SGP4

EPOCH          = 2026-02-20T02:37:34.357152
MEAN_MOTION    = 15.75313490
ECCENTRICITY   = .0001734
INCLINATION    = 97.2835
RA_OF_ASC_NODE = 110.6922
ARG_OF_PERICENTER = 130.0573
MEAN_ANOMALY   = 230.0844

EPHEMERIS_TYPE = 0
CLASSIFICATION_TYPE = U
NORAD_CAT_ID   = 67582
ELEMENT_SET_NO = 999
REV_AT_EPOCH   = 403
BSTAR          = .21401665E-2
MEAN_MOTION_DOT = .33366E-2
MEAN_MOTION_DDOT = 0

CCSDS_OMM_VERS = 2.0
CREATION_DATE  = 
ORIGINATOR     = 

OBJECT_NAME    = STARLINK-36577
OBJECT_ID      = 2026-016Y
CENTER_NAME    = EARTH
REF_FRAME      = TEME
TIME_SYSTEM    = UTC
MEAN_ELEMENT_THEORY = SGP/SGP4

EPOCH          = 2026-02-20T03:13:21.683136
MEAN_MOTION    = 15.80842802
ECCENTRICITY   = .00020603
INCLINATION    = 97.2824
RA_OF_ASC_NODE = 110.8112
ARG_OF_PERICENTER = 106.7869
MEAN_ANOMALY   = 253.3625

EPHEMERIS_TYPE = 0
CLASSIFICATION_TYPE = U
NORAD_CAT_ID   = 67583
ELEMENT_SET_NO = 999
REV_AT_EPOCH   = 404
BSTAR          = .17566168E-3
MEAN_MOTION_DOT = .33679E-3
MEAN_MOTION_DDOT = 0

CCSDS_OMM_VERS = 2.0
CREATION_DATE  = 
ORIGINATOR     = 

OBJECT_NAME    = STARLINK-36419
OBJECT_ID      = 2026-016Z
CENTER_NAME    = EARTH
REF_FRAME      = TEME
TIME_SYSTEM    = UTC
MEAN_ELEMENT_THEORY = SGP/SGP4

EPOCH          = 2026-02-20T06:00:02.000160
MEAN_MOTION    = 15.75205393
ECCENTRICITY   = .00010824
INCLINATION    = 97.2846
RA_OF_ASC_NODE = 110.9185
ARG_OF_PERICENTER = 61.3570
MEAN_ANOMALY   = 195.4791

EPHEMERIS_TYPE = 0
CLASSIFICATION_TYPE = U
NORAD_CAT_ID   = 67584
ELEMENT_SET_NO = 999
REV_AT_EPOCH   = 524
BSTAR          = -.41175651E-3
MEAN_MOTION_DOT = -.61147E-3
MEAN_MOTION_DDOT = 0

CCSDS_OMM_VERS = 2.0
CREATION_DATE  = 
ORIGINATOR     = 

OBJECT_NAME    = STARLINK-36560
OBJECT_ID      = 2026-016AA
CENTER_NAME    = EARTH
REF_FRAME      = TEME
TIME_SYSTEM    = UTC
MEAN_ELEMENT_THEORY = SGP/SGP4

EPOCH          = 2026-02-20T03:05:07.798272
MEAN_MOTION    = 15.80872522
ECCENTRICITY   = .00021084
INCLINATION    = 97.2829
RA_OF_ASC_NODE = 110.8212
ARG_OF_PERICENTER = 132.4876
MEAN_ANOMALY   = 227.6571

EPHEMERIS_TYPE = 0
CLASSIFICATION_TYPE = U
NORAD_CAT_ID   = 67585
ELEMENT_SET_NO = 999
REV_AT_EPOCH   = 404
BSTAR          = .883788E-3
MEAN_MOTION_DOT = .172997E-2
MEAN_MOTION_DDOT = 0

CCSDS_OMM_VERS = 2.0
CREATION_DATE  = 
ORIGINATOR     = 

OBJECT_NAME    = NAVSTAR 85 (USA 581)
OBJECT_ID      = 2026-017A
CENTER_NAME    = EARTH
REF_FRAME      = TEME
TIME_SYSTEM    = UTC
MEAN_ELEMENT_THEORY = SGP/SGP4

EPOCH          = 2026-02-17T12:56:41.465184
MEAN_MOTION    = 2.00561228
ECCENTRICITY   = .0000946
INCLINATION    = 55.0081
RA_OF_ASC_NODE = 93.5564
ARG_OF_PERICENTER = 45.2724
MEAN_ANOMALY   = 314.8210

EPHEMERIS_TYPE = 0
CLASSIFICATION_TYPE = U
NORAD_CAT_ID   = 67588
ELEMENT_SET_NO = 999
REV_AT_EPOCH   = 42921
BSTAR          = 0
MEAN_MOTION_DOT = .28E-6
MEAN_MOTION_DDOT = 0

CCSDS_OMM_VERS = 2.0
CREATION_DATE  = 
ORIGINATOR     = 

OBJECT_NAME    = STARLINK-36641
OBJECT_ID      = 2026-018A
CENTER_NAME    = EARTH
REF_FRAME      = TEME
TIME_SYSTEM    = UTC
MEAN_ELEMENT_THEORY = SGP/SGP4

EPOCH          = 2026-02-20T17:19:59.854656
MEAN_MOTION    = 15.75190778
ECCENTRICITY   = .0002122
INCLINATION    = 97.2839
RA_OF_ASC_NODE = 116.6441
ARG_OF_PERICENTER = 71.4151
MEAN_ANOMALY   = 288.7345

EPHEMERIS_TYPE = 0
CLASSIFICATION_TYPE = U
NORAD_CAT_ID   = 67589
ELEMENT_SET_NO = 999
REV_AT_EPOCH   = 463
BSTAR          = .14224E-2
MEAN_MOTION_DOT = .217542E-2
MEAN_MOTION_DDOT = 0

CCSDS_OMM_VERS = 2.0
CREATION_DATE  = 
ORIGINATOR     = 

OBJECT_NAME    = STARLINK-36376
OBJECT_ID      = 2026-018B
CENTER_NAME    = EARTH
REF_FRAME      = TEME
TIME_SYSTEM    = UTC
MEAN_ELEMENT_THEORY = SGP/SGP4

EPOCH          = 2026-02-20T18:00:01.999296
MEAN_MOTION    = 15.75273555
ECCENTRICITY   = .0001497
INCLINATION    = 97.2842
RA_OF_ASC_NODE = 116.7172
ARG_OF_PERICENTER = 96.6931
MEAN_ANOMALY   = 162.9827

EPHEMERIS_TYPE = 0
CLASSIFICATION_TYPE = U
NORAD_CAT_ID   = 67590
ELEMENT_SET_NO = 999
REV_AT_EPOCH   = 467
BSTAR          = -.10121E-2
MEAN_MOTION_DOT = -.149025E-2
MEAN_MOTION_DDOT = 0

CCSDS_OMM_VERS = 2.0
CREATION_DATE  = 
ORIGINATOR     = 

OBJECT_NAME    = STARLINK-36391
OBJECT_ID      = 2026-018C
CENTER_NAME    = EARTH
REF_FRAME      = TEME
TIME_SYSTEM    = UTC
MEAN_ELEMENT_THEORY = SGP/SGP4

EPOCH          = 2026-02-20T16:37:49.366272
MEAN_MOTION    = 15.80959488
ECCENTRICITY   = .000168
INCLINATION    = 97.2824
RA_OF_ASC_NODE = 116.6847
ARG_OF_PERICENTER = 47.0211
MEAN_ANOMALY   = 313.1197

EPHEMERIS_TYPE = 0
CLASSIFICATION_TYPE = U
NORAD_CAT_ID   = 67591
ELEMENT_SET_NO = 999
REV_AT_EPOCH   = 463
BSTAR          = .18104E-2
MEAN_MOTION_DOT = .363872E-2
MEAN_MOTION_DDOT = 0

CCSDS_OMM_VERS = 2.0
CREATION_DATE  = 
ORIGINATOR     = 

OBJECT_NAME    = STARLINK-36603
OBJECT_ID      = 2026-018D
CENTER_NAME    = EARTH
REF_FRAME      = TEME
TIME_SYSTEM    = UTC
MEAN_ELEMENT_THEORY = SGP/SGP4

EPOCH          = 2026-02-20T18:00:01.999296
MEAN_MOTION    = 15.75267434
ECCENTRICITY   = .0001399
INCLINATION    = 97.2842
RA_OF_ASC_NODE = 116.7278
ARG_OF_PERICENTER = 104.4936
MEAN_ANOMALY   = 179.1761

EPHEMERIS_TYPE = 0
CLASSIFICATION_TYPE = U
NORAD_CAT_ID   = 67592
ELEMENT_SET_NO = 999
REV_AT_EPOCH   = 463
BSTAR          = -.89812E-3
MEAN_MOTION_DOT = -.13248E-2
MEAN_MOTION_DDOT = 0

CCSDS_OMM_VERS = 2.0
CREATION_DATE  = 
ORIGINATOR     = 

OBJECT_NAME    = STARLINK-36634
OBJECT_ID      = 2026-018E
CENTER_NAME    = EARTH
REF_FRAME      = TEME
TIME_SYSTEM    = UTC
MEAN_ELEMENT_THEORY = SGP/SGP4

EPOCH          = 2026-02-20T18:00:01.999296
MEAN_MOTION    = 15.76158418
ECCENTRICITY   = .0001496
INCLINATION    = 97.2836
RA_OF_ASC_NODE = 116.7462
ARG_OF_PERICENTER = 80.9987
MEAN_ANOMALY   = 246.1626

EPHEMERIS_TYPE = 0
CLASSIFICATION_TYPE = U
NORAD_CAT_ID   = 67593
ELEMENT_SET_NO = 999
REV_AT_EPOCH   = 462
BSTAR          = -.93502E-2
MEAN_MOTION_DOT = -.1304097E-1
MEAN_MOTION_DDOT = 0

